[{"OBJECT_NAME":"STARLINK-32000","OBJECT_ID":"2024-132M","EPOCH":"2026-03-09T09:30:39.030048","MEAN_MOTION":15.30186778,"ECCENTRICITY":0.00015105,"INCLINATION":53.1611,"RA_OF_ASC_NODE":53.9242,"ARG_OF_PERICENTER":98.3792,"MEAN_ANOMALY":261.738,"EPHEMERIS_TYPE":0,"CLASSIFICATION_TYPE":"U","NORAD_CAT_ID":60289,"ELEMENT_SET_NO":999,"REV_AT_EPOCH":9151,"BSTAR":-1.2344262e-5,"MEAN_MOTION_DOT":-7.25e-6,"MEAN_MOTION_DDOT":0},{"OBJECT_NAME":"KUIPER-00274","OBJECT_ID":"2026-030AE","EPOCH":"2026-03-09T22:00:01.999584","MEAN_MOTION":15.29896925,"ECCENTRICITY":0.00182929,"INCLINATION":51.8831,"RA_OF_ASC_NODE":218.6923,"ARG_OF_PERICENTER":71.2033,"MEAN_ANOMALY":115.2248,"EPHEMERIS_TYPE":0,"CLASSIFICATION_TYPE":"U","NORAD_CAT_ID":67792,"ELEMENT_SET_NO":999,"REV_AT_EPOCH":410,"BSTAR":0.0017989756,"MEAN_MOTION_DOT":0.00053102,"MEAN_MOTION_DDOT":0}]
